[{"OBJECT_NAME":"STARLINK-2607","OBJECT_ID":"2021-038AQ","EPOCH":"2026-03-10T00:00:02.999808","MEAN_MOTION":15.2934532,"ECCENTRICITY":0.00013108,"INCLINATION":53.1591,"RA_OF_ASC_NODE":331.3891,"ARG_OF_PERICENTER":90.0816,"MEAN_ANOMALY":260.4954,"EPHEMERIS_TYPE":0,"CLASSIFICATION_TYPE":"U","NORAD_CAT_ID":48391,"ELEMENT_SET_NO":999,"REV_AT_EPOCH":545,"BSTAR":0.0001037746,"MEAN_MOTION_DOT":2.639e-5,"MEAN_MOTION_DDOT":0},{"OBJECT_NAME":"CZ-4B DEB","OBJECT_ID":"2008-053J","EPOCH":"2026-03-09T11:59:22.469568","MEAN_MOTION":15.1637526,"ECCENTRICITY":0.00601661,"INCLINATION":97.7872,"RA_OF_ASC_NODE":170.5072,"ARG_OF_PERICENTER":304.792,"MEAN_ANOMALY":54.7659,"EPHEMERIS_TYPE":0,"CLASSIFICATION_TYPE":"U","NORAD_CAT_ID":35573,"ELEMENT_SET_NO":999,"REV_AT_EPOCH":91868,"BSTAR":0.0017688276,"MEAN_MOTION_DOT":0.00036031,"MEAN_MOTION_DDOT":0}]
